NOAA 15                 
1 25338U 98030A   22303.05312014  .00000150  00000+0  80875-4 0  9994
2 25338  98.6331 330.7624 0009291 264.3553  95.6568 14.26188628272452
DMSP 5D-3 F15 (USA 147) 
1 25991U 99067A   22303.10556784  .00000213  00000+0  13014-3 0  9990
2 25991  99.0633 297.0514 0010321 161.9616 283.6810 14.16589638182856
DMSP 5D-3 F16 (USA 172) 
1 28054U 03048A   22303.07640006  .00000153  00000+0  10504-3 0  9998
2 28054  99.0002 294.6522 0006541 302.1708 145.6494 14.13699881982044
NOAA 18                 
1 28654U 05018A   22303.05200515  .00000238  00000+0  15201-3 0  9991
2 28654  98.9367  13.3010 0013419 313.5856  46.4202 14.12797972899076
METEOSAT-9 (MSG-2)      
1 28912U 05049B   22302.94221670  .00000132  00000+0  00000+0 0  9994
2 28912   6.3199  65.3860 0001584 186.6515 171.0975  1.00273626 61789
EWS-G1 (GOES 13)        
1 29155U 06018A   22302.74424712  .00000043  00000+0  00000+0 0  9992
2 29155   0.9147  94.5504 0006490 129.4482 143.3854  1.00269957 30078
DMSP 5D-3 F17 (USA 191) 
1 29522U 06050A   22303.07877581  .00000161  00000+0  10738-3 0  9993
2 29522  98.7645 315.5994 0009018 234.5332 125.5000 14.14130004824934
FENGYUN 3A              
1 32958U 08026A   22302.88882011  .00000144  00000+0  89279-4 0  9995
2 32958  98.5217 260.1342 0008810   2.1622 357.9591 14.18754463747289
FENGYUN 2E              
1 33463U 08066A   22302.84563366 -.00000196  00000+0  00000+0 0  9994
2 33463   6.2002  64.4708 0000735  34.2815 330.2877  1.00267728 50792
NOAA 19                 
1 33591U 09005A   22303.06867037  .00000180  00000+0  12222-3 0  9992
2 33591  99.1342 339.9516 0014180 166.4674 193.6880 14.12629570707450
GOES 14                 
1 35491U 09033A   22302.63598058 -.00000089  00000+0  00000+0 0  9996
2 35491   0.2864 265.8939 0018143 311.9921 304.7718  1.00272181 48801
METEOR-M 1              
1 35865U 09049A   22302.89754141  .00000132  00000+0  78388-4 0  9990
2 35865  98.5473 269.1412 0002177 166.9554 193.1680 14.22371661680659
DMSP 5D-3 F18 (USA 210) 
1 35951U 09057A   22303.10618540  .00000233  00000+0  14637-3 0  9990
2 35951  98.7394 279.2759 0012212  65.2136 295.0306 14.13578294672135
GOES 15                 
1 36411U 10008A   22302.60769840  .00000061  00000+0  00000+0 0  9998
2 36411   0.2458 279.4203 0003913 261.3781 307.4851  1.00271690 46360
COMS 1                  
1 36744U 10032A   22301.63503954 -.00000335  00000+0  00000+0 0  9993
2 36744   1.4159  91.8216 0000772 127.4011 174.5272  1.00269513 45346
FENGYUN 3B              
1 37214U 10059A   22302.91317776  .00000048  00000+0  49347-4 0  9994
2 37214  99.0942 311.2879 0021800 338.5022  21.5232 14.14271490619966
SUOMI NPP               
1 37849U 11061A   22302.96669007  .00000114  00000+0  74969-4 0  9996
2 37849  98.7433 239.7029 0000992  84.6376 334.3338 14.19555644570264
FENGYUN 2F              
1 38049U 12002A   22302.83200395 -.00000351  00000+0  00000+0 0  9996
2 38049   4.1169  78.5828 0000819 341.4521  29.3780  1.00259843 39589
METEOSAT-10 (MSG-3)     
1 38552U 12035B   22302.31435764  .00000069  00000+0  00000+0 0  9999
2 38552   1.7360  47.9161 0001191 146.8555 325.4308  1.00277308 37919
METOP-B                 
1 38771U 12049A   22303.07886759  .00000133  00000+0  80737-4 0  9997
2 38771  98.7135   0.9018 0001189  62.6178  52.6079 14.21487477524856
FENGYUN 3C              
1 39260U 13052A   22302.88604843  .00000087  00000+0  65198-4 0  9998
2 39260  98.4461 324.1417 0009970 245.1081 114.9064 14.15954137470941
METEOR-M 2              
1 40069U 14037A   22302.90932685  .00000034  00000+0  35152-4 0  9991
2 40069  98.4297 314.5655 0004644 298.1674  61.9030 14.20724025430951
HIMAWARI-8              
1 40267U 14060A   22302.87549353 -.00000272  00000+0  00000+0 0  9993
2 40267   0.0512 108.9247 0001177 129.0861 256.0471  1.00270797 29462
FENGYUN 2G              
1 40367U 14090A   22302.85799958 -.00000293  00000+0  00000+0 0  9996
2 40367   2.2697  88.0461 0002718 203.3386 154.8681  1.00259984 28694
METEOSAT-11 (MSG-4)     
1 40732U 15034A   22302.35605053  .00000007  00000+0  00000+0 0  9990
2 40732   0.5841  75.1623 0000321 121.8352 329.2277  1.00281137 26720
ELEKTRO-L 2             
1 41105U 15074A   22302.06368666 -.00000106  00000+0  00000+0 0  9994
2 41105   3.3187  86.5291 0002875 129.0728 190.3152  1.00272161 25207
HIMAWARI-9              
1 41836U 16064A   22302.19698587 -.00000269  00000+0  00000+0 0  9997
2 41836   0.0314 116.8793 0000499 104.0907  28.2073  1.00268215 21886
GOES 16                 
1 41866U 16071A   22302.52536720 -.00000243  00000+0  00000+0 0  9997
2 41866   0.0505 278.2947 0000492 333.3780 260.1291  1.00270628 21817
FENGYUN 4A              
1 41882U 16077A   22302.99377176 -.00000327  00000+0  00000+0 0  9993
2 41882   0.1476 287.5915 0004611 116.2454  96.9122  1.00271203 21687
CYGFM05                 
1 41884U 16078A   22302.79345244  .00005701  00000+0  28145-3 0  9999
2 41884  34.9560  84.7312 0014769 217.7910 142.1766 15.17144504325192
CYGFM04                 
1 41885U 16078B   22302.73189944  .00005688  00000+0  27654-3 0  9995
2 41885  34.9492  73.5843 0013448 235.3090 124.6355 15.17691292325235
CYGFM02                 
1 41886U 16078C   22302.71932858  .00004792  00000+0  23297-3 0  9998
2 41886  34.9587  75.9155 0014105 229.0330 130.9162 15.17729507325317
CYGFM01                 
1 41887U 16078D   22302.68104465  .00004701  00000+0  23371-3 0  9993
2 41887  34.9526  88.0410 0015245 215.9616 144.0070 15.16942325325124
CYGFM08                 
1 41888U 16078E   22302.82091948  .00005897  00000+0  28866-3 0  9992
2 41888  34.9497  79.1784 0014542 229.8653 130.0785 15.17432351325280
CYGFM06                 
1 41889U 16078F   22302.69827661  .00005016  00000+0  24376-3 0  9992
2 41889  34.9581  74.7025 0013091 228.8387 131.1196 15.17745364325251
CYGFM07                 
1 41890U 16078G   22302.82020885  .00006005  00000+0  29203-3 0  9995
2 41890  34.9521  72.8026 0012897 234.4999 125.4510 15.17678385325256
CYGFM03                 
1 41891U 16078H   22302.62150201  .00005843  00000+0  28423-3 0  9992
2 41891  34.9553  74.5479 0012382 230.7373 129.2241 15.17678983325210
FENGYUN 3D              
1 43010U 17072A   22303.02189900 -.00000045  00000+0  00000+0 0  9992
2 43010  98.8286 247.0281 0000921 203.8921 222.6767 14.19107901256853
NOAA 20                 
1 43013U 17073A   22303.06017391  .00000109  00000+0  72587-4 0  9998
2 43013  98.7272 239.5572 0001507  68.1762 291.9574 14.19554441256327
GOES 17                 
1 43226U 18022A   22302.59601338  .00000103  00000+0  00000+0 0  9996
2 43226   0.0398 279.9347 0000392 269.0292 286.2054  1.00271756 17121
FENGYUN 2H              
1 43491U 18050A   22302.83741404 -.00000123  00000+0  00000+0 0  9990
2 43491   1.4842  94.5445 0003709  67.1021 257.0884  1.00270585 16132
METOP-C                 
1 43689U 18087A   22303.09295879  .00000133  00000+0  81061-4 0  9999
2 43689  98.7181   0.9352 0003382  26.9237 333.2115 14.21481209206435
GEO-KOMPSAT-2A          
1 43823U 18100A   22302.78868803 -.00000340  00000+0  00000+0 0  9993
2 43823   0.0486  70.6457 0001028  68.2086 311.4510  1.00272170 14325
METEOR-M2 2             
1 44387U 19038A   22302.87546508  .00000017  00000+0  26981-4 0  9996
2 44387  98.7407 262.6816 0000391 194.0595 166.0573 14.23726906172536
FENGYUN 3E              
1 49008U 21062A   22302.90909254  .00000019  00000+0  29468-4 0  9991
2 49008  98.7171 302.7816 0001474 359.9167   0.2022 14.19743515 68391
GOES 18                 
1 51850U 22021A   22300.99390559  .00000107  00000+0  00000+0 0  9998
2 51850   0.0050  49.5673 0002462 174.9123  32.7832  1.00275299  2463
